GHGSAT-C1               
1 46278U 20061G   26197.81768229  .00025576  00000+0  18444-3 0  9992
2 46278  97.2093 283.9618 0001196 174.1563 185.9716 15.73535964328132
GHGSAT-C2               
1 47509U 21006DA  26197.62322448  .00003525  00000+0  96044-4 0  9991
2 47509  97.2128 244.3867 0006650  71.7231 288.4738 15.38118485304379
GHGSAT-C3               
1 52737U 22057F   26197.84371588  .00003533  00000+0  10761-3 0  9990
2 52737  97.6637 344.6240 0006162  30.0205 330.1390 15.34690972230080
GHGSAT-C5               
1 52744U 22057N   26197.88308516  .00003585  00000+0  10922-3 0  9999
2 52744  97.6723 346.2731 0006866  26.8249 333.3347 15.34668211230098
GHGSAT-C4               
1 52746U 22057Q   26197.86445426  .00003533  00000+0  10765-3 0  9999
2 52746  97.6564 343.4469 0005993  13.5722 346.5680 15.34678244230092
GHGSAT-C8               
1 56186U 23054J   26197.85716240  .00009930  00000+0  15622-3 0  9997
2 56186  97.2959 107.6000 0002703 355.1735   4.9492 15.53804886183046
GHGSAT-C6               
1 56204U 23054AC  26197.82340457  .00009665  00000+0  15224-3 0  9991
2 56204  97.3020 108.2703 0003343 297.6506  62.4408 15.53779053183055
GHGSAT-C7               
1 56209U 23054AH  26197.82551515  .00006771  00000+0  12051-3 0  9995
2 56209  97.2969 106.5808 0004888 295.9726  64.1022 15.50467047182984
GHGSAT-C12              
1 64529U 25135B   26197.79925709  .00001746  00000+0  83175-4 0  9990
2 64529  97.4773 312.3504 0006364  76.8131 283.3814 15.20451079 59320
GHGSAT-C13              
1 64548U 25135W   26197.78597905  .00003005  00000+0  13705-3 0  9994
2 64548  97.4806 312.9554 0001800  66.2620 293.8804 15.21412831 59357
