{"fetched_at":"2026-07-17T06:38:13.496Z","source":"https://celestrak.org/NORAD/elements/gp.php?NAME=GHGSAT&FORMAT=JSON","constellation":"ghgsat","records":[{"OBJECT_NAME":"GHGSAT-C1","OBJECT_ID":"2020-061G","EPOCH":"2026-07-16T19:37:27.749856","CLASSIFICATION_TYPE":"U","MEAN_MOTION":15.73535964,"ECCENTRICITY":0.0001196,"INCLINATION":97.2093,"RA_OF_ASC_NODE":283.9618,"ARG_OF_PERICENTER":174.1563,"MEAN_ANOMALY":185.9716,"EPHEMERIS_TYPE":0,"NORAD_CAT_ID":46278,"ELEMENT_SET_NO":999,"REV_AT_EPOCH":32813,"BSTAR":0.00018444,"MEAN_MOTION_DOT":0.00025576,"MEAN_MOTION_DDOT":0},{"OBJECT_NAME":"GHGSAT-C2","OBJECT_ID":"2021-006DA","EPOCH":"2026-07-16T14:57:26.595072","CLASSIFICATION_TYPE":"U","MEAN_MOTION":15.38118485,"ECCENTRICITY":0.000665,"INCLINATION":97.2128,"RA_OF_ASC_NODE":244.3867,"ARG_OF_PERICENTER":71.7231,"MEAN_ANOMALY":288.4738,"EPHEMERIS_TYPE":0,"NORAD_CAT_ID":47509,"ELEMENT_SET_NO":999,"REV_AT_EPOCH":30437,"BSTAR":0.000096044,"MEAN_MOTION_DOT":0.00003525,"MEAN_MOTION_DDOT":0},{"OBJECT_NAME":"GHGSAT-C3","OBJECT_ID":"2022-057F","EPOCH":"2026-07-16T20:14:57.052032","CLASSIFICATION_TYPE":"U","MEAN_MOTION":15.34690972,"ECCENTRICITY":0.0006162,"INCLINATION":97.6637,"RA_OF_ASC_NODE":344.624,"ARG_OF_PERICENTER":30.0205,"MEAN_ANOMALY":330.139,"EPHEMERIS_TYPE":0,"NORAD_CAT_ID":52737,"ELEMENT_SET_NO":999,"REV_AT_EPOCH":23008,"BSTAR":0.00010761,"MEAN_MOTION_DOT":0.00003533,"MEAN_MOTION_DDOT":0},{"OBJECT_NAME":"GHGSAT-C5","OBJECT_ID":"2022-057N","EPOCH":"2026-07-16T21:11:38.557824","CLASSIFICATION_TYPE":"U","MEAN_MOTION":15.34668211,"ECCENTRICITY":0.0006866,"INCLINATION":97.6723,"RA_OF_ASC_NODE":346.2731,"ARG_OF_PERICENTER":26.8249,"MEAN_ANOMALY":333.3347,"EPHEMERIS_TYPE":0,"NORAD_CAT_ID":52744,"ELEMENT_SET_NO":999,"REV_AT_EPOCH":23009,"BSTAR":0.00010922,"MEAN_MOTION_DOT":0.00003585,"MEAN_MOTION_DDOT":0},{"OBJECT_NAME":"GHGSAT-C4","OBJECT_ID":"2022-057Q","EPOCH":"2026-07-16T20:44:48.848064","CLASSIFICATION_TYPE":"U","MEAN_MOTION":15.34678244,"ECCENTRICITY":0.0005993,"INCLINATION":97.6564,"RA_OF_ASC_NODE":343.4469,"ARG_OF_PERICENTER":13.5722,"MEAN_ANOMALY":346.568,"EPHEMERIS_TYPE":0,"NORAD_CAT_ID":52746,"ELEMENT_SET_NO":999,"REV_AT_EPOCH":23009,"BSTAR":0.00010765,"MEAN_MOTION_DOT":0.00003533,"MEAN_MOTION_DDOT":0},{"OBJECT_NAME":"GHGSAT-C8","OBJECT_ID":"2023-054J","EPOCH":"2026-07-16T20:34:18.831360","CLASSIFICATION_TYPE":"U","MEAN_MOTION":15.53804886,"ECCENTRICITY":0.0002703,"INCLINATION":97.2959,"RA_OF_ASC_NODE":107.6,"ARG_OF_PERICENTER":355.1735,"MEAN_ANOMALY":4.9492,"EPHEMERIS_TYPE":0,"NORAD_CAT_ID":56186,"ELEMENT_SET_NO":999,"REV_AT_EPOCH":18304,"BSTAR":0.00015622,"MEAN_MOTION_DOT":0.0000993,"MEAN_MOTION_DDOT":0},{"OBJECT_NAME":"GHGSAT-C6","OBJECT_ID":"2023-054AC","EPOCH":"2026-07-16T19:45:42.154848","CLASSIFICATION_TYPE":"U","MEAN_MOTION":15.53779053,"ECCENTRICITY":0.0003343,"INCLINATION":97.302,"RA_OF_ASC_NODE":108.2703,"ARG_OF_PERICENTER":297.6506,"MEAN_ANOMALY":62.4408,"EPHEMERIS_TYPE":0,"NORAD_CAT_ID":56204,"ELEMENT_SET_NO":999,"REV_AT_EPOCH":18305,"BSTAR":0.00015224,"MEAN_MOTION_DOT":0.00009665,"MEAN_MOTION_DDOT":0},{"OBJECT_NAME":"GHGSAT-C7","OBJECT_ID":"2023-054AH","EPOCH":"2026-07-16T19:48:44.508960","CLASSIFICATION_TYPE":"U","MEAN_MOTION":15.50467047,"ECCENTRICITY":0.0004888,"INCLINATION":97.2969,"RA_OF_ASC_NODE":106.5808,"ARG_OF_PERICENTER":295.9726,"MEAN_ANOMALY":64.1022,"EPHEMERIS_TYPE":0,"NORAD_CAT_ID":56209,"ELEMENT_SET_NO":999,"REV_AT_EPOCH":18298,"BSTAR":0.00012051,"MEAN_MOTION_DOT":0.00006771,"MEAN_MOTION_DDOT":0},{"OBJECT_NAME":"GHGSAT-C12","OBJECT_ID":"2025-135B","EPOCH":"2026-07-16T19:10:55.812576","CLASSIFICATION_TYPE":"U","MEAN_MOTION":15.20451079,"ECCENTRICITY":0.0006364,"INCLINATION":97.4773,"RA_OF_ASC_NODE":312.3504,"ARG_OF_PERICENTER":76.8131,"MEAN_ANOMALY":283.3814,"EPHEMERIS_TYPE":0,"NORAD_CAT_ID":64529,"ELEMENT_SET_NO":999,"REV_AT_EPOCH":5932,"BSTAR":0.000083175,"MEAN_MOTION_DOT":0.00001746,"MEAN_MOTION_DDOT":0},{"OBJECT_NAME":"GHGSAT-C13","OBJECT_ID":"2025-135W","EPOCH":"2026-07-16T18:51:48.589920","CLASSIFICATION_TYPE":"U","MEAN_MOTION":15.21412831,"ECCENTRICITY":0.00018,"INCLINATION":97.4806,"RA_OF_ASC_NODE":312.9554,"ARG_OF_PERICENTER":66.262,"MEAN_ANOMALY":293.8804,"EPHEMERIS_TYPE":0,"NORAD_CAT_ID":64548,"ELEMENT_SET_NO":999,"REV_AT_EPOCH":5935,"BSTAR":0.00013705,"MEAN_MOTION_DOT":0.00003005,"MEAN_MOTION_DDOT":0}]}
